[{"OBJECT_NAME":"STARLINK-3918","OBJECT_ID":"2022-049AM","EPOCH":"2026-03-09T22:45:39.789216","MEAN_MOTION":15.08829321,"ECCENTRICITY":0.00014668,"INCLINATION":53.2175,"RA_OF_ASC_NODE":57.9599,"ARG_OF_PERICENTER":91.3288,"MEAN_ANOMALY":268.7872,"EPHEMERIS_TYPE":0,"CLASSIFICATION_TYPE":"U","NORAD_CAT_ID":52486,"ELEMENT_SET_NO":999,"REV_AT_EPOCH":21229,"BSTAR":1.4677513e-5,"MEAN_MOTION_DOT":-5.4e-7,"MEAN_MOTION_DDOT":0},{"OBJECT_NAME":"OBJECT E","OBJECT_ID":"2025-013E","EPOCH":"2026-03-09T23:59:52.369152","MEAN_MOTION":15.10347623,"ECCENTRICITY":0.00085591,"INCLINATION":97.6477,"RA_OF_ASC_NODE":238.3736,"ARG_OF_PERICENTER":6.9171,"MEAN_ANOMALY":353.2174,"EPHEMERIS_TYPE":0,"CLASSIFICATION_TYPE":"U","NORAD_CAT_ID":62733,"ELEMENT_SET_NO":999,"REV_AT_EPOCH":6224,"BSTAR":0.00032920786,"MEAN_MOTION_DOT":5.34e-5,"MEAN_MOTION_DDOT":0}]
